{
  "norad_id": 49451,
  "name": "STARLINK-3125",
  "history": [
    {
      "epoch": "2026-03-28T11:48:21.562272Z",
      "apogee_km": 540.5861198507755,
      "perigee_km": 538.896635593368,
      "latitude_deg": -3.1919150841102523e-06,
      "longitude_deg": 131.71316429843037,
      "height_km": 540.6359796963336,
      "semi_major_axis_km": 6917.8783777220715,
      "eccentricity": 0.00012211,
      "inclination_deg": 53.2159,
      "raan_deg": 134.7146,
      "arg_perigee_deg": 89.9229,
      "mean_anomaly_deg": 270.1903,
      "mean_motion_rev_day": 15.08840658
    },
    {
      "epoch": "2026-03-29T08:28:21.963936Z",
      "apogee_km": 540.5853192568238,
      "perigee_km": 538.8749457869781,
      "latitude_deg": 2.2006940979019055e-05,
      "longitude_deg": 176.99675499361078,
      "height_km": 540.6058635389901,
      "semi_major_axis_km": 6917.8671325219,
      "eccentricity": 0.00012362,
      "inclination_deg": 53.2158,
      "raan_deg": 130.8486,
      "arg_perigee_deg": 88.6616,
      "mean_anomaly_deg": 271.4518,
      "mean_motion_rev_day": 15.08844337
    },
    {
      "epoch": "2026-03-30T11:29:55.079808Z",
      "apogee_km": 540.5791111484159,
      "perigee_km": 538.8669407919879,
      "latitude_deg": 8.132303181657122e-06,
      "longitude_deg": 125.4439499014701,
      "height_km": 540.636005369038,
      "semi_major_axis_km": 6917.860025970202,
      "eccentricity": 0.00012375,
      "inclination_deg": 53.216,
      "raan_deg": 125.7937,
      "arg_perigee_deg": 91.1547,
      "mean_anomaly_deg": 268.9587,
      "mean_motion_rev_day": 15.08846662
    },
    {
      "epoch": "2026-03-30T19:26:50.812512Z",
      "apogee_km": 540.5769073530428,
      "perigee_km": 538.8763581148451,
      "latitude_deg": 4.671127055866095e-06,
      "longitude_deg": 4.3982818931744365,
      "height_km": 540.6114924501426,
      "semi_major_axis_km": 6917.863632733944,
      "eccentricity": 0.00012291,
      "inclination_deg": 53.2157,
      "raan_deg": 124.3067,
      "arg_perigee_deg": 89.269,
      "mean_anomaly_deg": 270.8443,
      "mean_motion_rev_day": 15.08845482
    },
    {
      "epoch": "2026-03-31T11:20:41.911584Z",
      "apogee_km": 540.6028918485717,
      "perigee_km": 538.8388380930037,
      "latitude_deg": 6.422169933086193e-05,
      "longitude_deg": 122.30862599949552,
      "height_km": 540.6040891250975,
      "semi_major_axis_km": 6917.857864970787,
      "eccentricity": 0.0001275,
      "inclination_deg": 53.216,
      "raan_deg": 121.3328,
      "arg_perigee_deg": 89.1916,
      "mean_anomaly_deg": 270.9223,
      "mean_motion_rev_day": 15.08847369
    },
    {
      "epoch": "2026-04-01T08:00:43.305984Z",
      "apogee_km": 540.6822972259115,
      "perigee_km": 538.8296854828268,
      "latitude_deg": -4.1765385782819024e-05,
      "longitude_deg": 167.58807259562295,
      "height_km": 540.6339032072029,
      "semi_major_axis_km": 6917.892991354369,
      "eccentricity": 0.0001339,
      "inclination_deg": 53.2161,
      "raan_deg": 117.4669,
      "arg_perigee_deg": 88.9057,
      "mean_anomaly_deg": 271.2088,
      "mean_motion_rev_day": 15.08835877
    },
    {
      "epoch": "2026-04-02T07:51:29.986560Z",
      "apogee_km": 540.6528290312053,
      "perigee_km": 538.8280313226733,
      "latitude_deg": -1.942222143603966e-05,
      "longitude_deg": 164.45355511051957,
      "height_km": 540.6276363206833,
      "semi_major_axis_km": 6917.877430176939,
      "eccentricity": 0.00013189,
      "inclination_deg": 53.2161,
      "raan_deg": 113.0062,
      "arg_perigee_deg": 89.4711,
      "mean_anomaly_deg": 270.6432,
      "mean_motion_rev_day": 15.08840968
    },
    {
      "epoch": "2026-04-03T07:42:16.851168Z",
      "apogee_km": 540.5933304537775,
      "perigee_km": 538.8790814733402,
      "latitude_deg": -7.632305213706541e-06,
      "longitude_deg": 161.3185602745896,
      "height_km": 540.6371652532749,
      "semi_major_axis_km": 6917.873205963559,
      "eccentricity": 0.0001239,
      "inclination_deg": 53.2162,
      "raan_deg": 108.5458,
      "arg_perigee_deg": 90.3484,
      "mean_anomaly_deg": 269.765,
      "mean_motion_rev_day": 15.0884235
    },
    {
      "epoch": "2026-04-04T07:33:04.526208Z",
      "apogee_km": 540.6491893888242,
      "perigee_km": 538.8570407756106,
      "latitude_deg": 3.6622651184300055e-05,
      "longitude_deg": 158.1805027370748,
      "height_km": 540.6533005539444,
      "semi_major_axis_km": 6917.890115082218,
      "eccentricity": 0.00012953,
      "inclination_deg": 53.2163,
      "raan_deg": 104.0857,
      "arg_perigee_deg": 90.2886,
      "mean_anomaly_deg": 269.8255,
      "mean_motion_rev_day": 15.08836818
    }
  ]
}